[{"OBJECT_NAME":"TEVEL2-1","OBJECT_ID":"2025-052H","EPOCH":"2026-03-09T15:32:51.927072","MEAN_MOTION":15.30341923,"ECCENTRICITY":0.0004767,"INCLINATION":97.3991,"RA_OF_ASC_NODE":324.7682,"ARG_OF_PERICENTER":104.8919,"MEAN_ANOMALY":255.2849,"EPHEMERIS_TYPE":0,"CLASSIFICATION_TYPE":"U","NORAD_CAT_ID":63217,"ELEMENT_SET_NO":999,"REV_AT_EPOCH":5485,"BSTAR":0.000706,"MEAN_MOTION_DOT":0.00020683,"MEAN_MOTION_DDOT":0},{"OBJECT_NAME":"STARLINK-34203","OBJECT_ID":"2025-119P","EPOCH":"2026-03-09T01:22:19.202880","MEAN_MOTION":15.276615,"ECCENTRICITY":0.00026261,"INCLINATION":43.0031,"RA_OF_ASC_NODE":310.5368,"ARG_OF_PERICENTER":280.0912,"MEAN_ANOMALY":79.9644,"EPHEMERIS_TYPE":0,"CLASSIFICATION_TYPE":"U","NORAD_CAT_ID":64246,"ELEMENT_SET_NO":999,"REV_AT_EPOCH":4408,"BSTAR":0.0025130672,"MEAN_MOTION_DOT":0.00069725,"MEAN_MOTION_DDOT":0}]
