TEVEL2-1                
1 63217U 25052H   26068.64782323  .00020683  00000+0  70600-3 0  9994
2 63217  97.3991 324.7682 0004767 104.8919 255.2849 15.30341923 54855
STARLINK-34203          
1 64246U 25119P   26068.05716670  .00069725  00000+0  25131-2 0  9996
2 64246  43.0031 310.5368 0002626 280.0912  79.9644 15.27661500 44087
